[{"OBJECT_NAME":"STARLINK-34750","OBJECT_ID":"2025-165F","EPOCH":"2026-03-09T19:29:08.504736","MEAN_MOTION":15.05646009,"ECCENTRICITY":0.00012089,"INCLINATION":97.603,"RA_OF_ASC_NODE":147.4231,"ARG_OF_PERICENTER":103.575,"MEAN_ANOMALY":256.5612,"EPHEMERIS_TYPE":0,"CLASSIFICATION_TYPE":"U","NORAD_CAT_ID":65061,"ELEMENT_SET_NO":999,"REV_AT_EPOCH":3481,"BSTAR":0.00048405218,"MEAN_MOTION_DOT":6.93e-5,"MEAN_MOTION_DDOT":0},{"OBJECT_NAME":"RAPIDEYE 3","OBJECT_ID":"2008-040D","EPOCH":"2026-03-09T19:34:21.496512","MEAN_MOTION":15.06489596,"ECCENTRICITY":0.00114187,"INCLINATION":97.3959,"RA_OF_ASC_NODE":102.9968,"ARG_OF_PERICENTER":27.1842,"MEAN_ANOMALY":332.9981,"EPHEMERIS_TYPE":0,"CLASSIFICATION_TYPE":"U","NORAD_CAT_ID":33315,"ELEMENT_SET_NO":999,"REV_AT_EPOCH":95131,"BSTAR":0.00019030529,"MEAN_MOTION_DOT":2.754e-5,"MEAN_MOTION_DDOT":0}]
